ONEWEB-0116             
1 48046U 21025E   25144.92560043  .00000290  00000+0  75921-3 0  9994
2 48046  87.8991  37.3623 0001687  77.7271 282.4047 13.13473232202687
ONEWEB-0150             
1 48047U 21025F   25144.74954395  .00000009  00000+0 -98587-5 0  9996
2 48047  87.8984  37.3966 0001953  76.2423 283.8923 13.13471373202557
ONEWEB-0107             
1 48048U 21025G   25145.43684450 -.00000019  00000+0 -85721-4 0  9993
2 48048  87.8981  37.2577 0002131  85.8710 274.2662 13.13471996202629
ONEWEB-0101             
1 48049U 21025H   25144.94253535 -.00000108  00000+0 -33165-3 0  9998
2 48049  87.8991  37.3922 0001871  84.3718 275.7624 13.13469973202534
ONEWEB-0113             
1 48050U 21025J   25145.41750130 -.00000219  00000+0 -63120-3 0  9993
2 48050  87.8989  37.2592 0001839  74.8806 285.2527 13.13972368202682
ONEWEB-0112             
1 48051U 21025K   25144.75630410  .00000150  00000+0  37574-3 0  9994
2 48051  87.8985  37.3902 0001897  77.8549 282.2793 13.13472312202604
ONEWEB-0156             
1 48052U 21025L   25145.45036701  .00000336  00000+0  88460-3 0  9992
2 48052  87.8986  37.2622 0001983  80.3677 279.7676 13.13472551202685
ONEWEB-0161             
1 48053U 21025M   25145.42497335 -.00000239  00000+0 -68889-3 0  9991
2 48053  87.8989  37.2838 0002031  81.9699 278.1661 13.13468528202613
